SOYUZ-MS 22             
1 53879U 22116A   22275.53751291  .00024831  00000+0  44670-3 0  9996
2 53879  51.6420 164.7267 0002961 256.7766 159.6586 15.49677524361833
2022-118A               
1 53884U 22118A   22276.23631957  .00004367  00000+0  18903-3 0  9990
2 53884  97.5205 282.7527 0013813 229.2030 268.1474 15.22877908  1265
2022-118B               
1 53885U 22118B   22276.23130016  .00005031  00000+0  21339-3 0  9997
2 53885  97.5205 282.7553 0010837 236.5657 252.3627 15.23526397  1252
STARLINK-5028           
1 53886U 22119A   22276.16668981 -.01189949  00000+0 -62334-2 0  9991
2 53886  53.2175 212.5289 0007373  57.8734 102.5969 15.82541500  1721
STARLINK-5029           
1 53887U 22119B   22276.16668981 -.01190723  00000+0 -62238-2 0  9997
2 53887  53.2175 212.5257 0007647  57.9132 103.8044 15.82583631  1723
STARLINK-5034           
1 53888U 22119C   22275.91667824 -.00996653  00000+0 -50825-2 0  9999
2 53888  53.2187 213.7823 0007323  86.4892  89.0125 15.83070000  1301
STARLINK-5031           
1 53889U 22119D   22276.16668981 -.01189561  00000+0 -62288-2 0  9992
2 53889  53.2175 212.5264 0006551  59.9765 101.3739 15.82565588  1725
STARLINK-5050           
1 53890U 22119E   22276.16668981  .00265248  37864-4  69423-3 0  9990
2 53890  53.2237 212.4025 0040170  78.5021 147.8918 15.92970073  1721
STARLINK-5041           
1 53891U 22119F   22276.16668981 -.01191154  00000+0 -62246-2 0  9990
2 53891  53.2175 212.5242 0006434  54.3966 108.1308 15.82613589  1728
STARLINK-5046           
1 53892U 22119G   22275.91667824  .00080807  00000+0  38006-3 0  9995
2 53892  53.2193 213.7734 0006886  97.9489  81.3935 15.82435129  1306
STARLINK-5052           
1 53893U 22119H   22276.16668981 -.01189645  00000+0 -62090-2 0  9991
2 53893  53.2175 212.5220 0004973  66.6410  97.0297 15.82662420  1723
STARLINK-5043           
1 53894U 22119J   22276.16668981 -.01191534  00000+0 -62203-2 0  9998
2 53894  53.2175 212.5242 0006615  53.9983 108.8850 15.82632195  1729
STARLINK-5032           
1 53895U 22119K   22276.16668981 -.01192095  00000+0 -62160-2 0  9994
2 53895  53.2175 212.5211 0005648  50.6335 113.4766 15.82675686  1726
STARLINK-5037           
1 53896U 22119L   22276.16668981 -.01189677  00000+0 -61904-2 0  9992
2 53896  53.2175 212.5204 0005701  69.6335  95.1504 15.82713709  1724
STARLINK-5035           
1 53897U 22119M   22276.16668981 -.01188830  00000+0 -62069-2 0  9996
2 53897  53.2175 212.5229 0005572  70.5046  92.8137 15.82643187  1726
STARLINK-5044           
1 53898U 22119N   22276.16668981 -.01191168  00000+0 -61858-2 0  9990
2 53898  53.2175 212.5181 0005515  63.7024 102.2428 15.82762125  1724
STARLINK-5042           
1 53899U 22119P   22276.16668981 -.01189085  00000+0 -61824-2 0  9999
2 53899  53.2175 212.5183 0004947  77.0589  88.5406 15.82742091  1721
STARLINK-5045           
1 53900U 22119Q   22276.16668981 -.01188680  00000+0 -61636-2 0  9993
2 53900  53.2175 212.5166 0005209  82.9680  83.7324 15.82793729  1724
STARLINK-5024           
1 53901U 22119R   22276.16668981 -.01192617  00000+0 -62037-2 0  9995
2 53901  53.2175 212.5193 0005520  50.3236 114.8663 15.82729921  1722
STARLINK-5021           
1 53902U 22119S   22276.16668981 -.01194276  00000+0 -61615-2 0  9990
2 53902  53.2175 212.5129 0007049  57.1173 111.4851 15.82877436  1722
STARLINK-5022           
1 53903U 22119T   22276.16668981 -.01193128  00000+0 -61931-2 0  9997
2 53903  53.2175 212.5169 0005690  51.9182 114.4943 15.82772975  1726
STARLINK-4787           
1 53904U 22119U   22275.91667824 -.01202481  00000+0 -60284-2 0  9998
2 53904  53.2186 213.7709 0008083  61.0617 120.2464 15.83473177  1306
STARLINK-5003           
1 53905U 22119V   22276.16668981 -.01193915  00000+0 -61666-2 0  9998
2 53905  53.2175 212.5133 0006467  55.9789 112.2024 15.82864299  1726
STARLINK-5054           
1 53906U 22119W   22276.16668981 -.01192868  00000+0 -61490-2 0  9990
2 53906  53.2175 212.5115 0006107  64.7021 104.6423 15.82910420  1721
STARLINK-5063           
1 53907U 22119X   22276.16668981 -.01190841  00000+0 -61653-2 0  9991
2 53907  53.2175 212.5150 0005194  70.3877  97.0266 15.82830944  1720
STARLINK-5057           
1 53908U 22119Y   22275.91667824 -.01172972  00000+0 -58280-2 0  9996
2 53908  53.2187 213.7660 0009761  63.9894 119.9220 15.83560189  1685
STARLINK-4796           
1 53909U 22119Z   22276.16668981 -.01193271  00000+0 -61728-2 0  9996
2 53909  53.2175 212.5144 0005540  54.8197 112.9889 15.82847440  1729
STARLINK-5056           
1 53910U 22119AA  22276.16668981 -.01195505  00000+0 -61398-2 0  9993
2 53910  53.2175 212.5085 0007158  57.5191 113.3778 15.82973427  1723
STARLINK-5048           
1 53911U 22119AB  22276.16668981 -.01194339  00000+0 -61571-2 0  9991
2 53911  53.2175 212.5120 0006872  57.2014 111.7338 15.82897169  1729
STARLINK-5059           
1 53912U 22119AC  22275.91667824 -.01134590  00000+0 -57342-2 0  9993
2 53912  53.2187 213.7646 0008231  75.2842 109.3718 15.83581018  1302
STARLINK-5053           
1 53913U 22119AD  22276.16668981 -.01195937  00000+0 -61299-2 0  9995
2 53913  53.2175 212.5066 0007503  58.3145 113.2994 15.83008680  1727
STARLINK-5040           
1 53914U 22119AE  22276.16668981 -.01196424  00000+0 -61275-2 0  9992
2 53914  53.2175 212.5063 0007400  56.7689 115.1749 15.83028575  1720
STARLINK-5017           
1 53915U 22119AF  22276.16668981 -.01195044  00000+0 -61415-2 0  9996
2 53915  53.2175 212.5100 0007586  58.6391 111.3797 15.82949782  1721
STARLINK-5051           
1 53916U 22119AG  22276.16668981 -.01192374  00000+0 -61178-2 0  9996
2 53916  53.2175 212.5057 0004093  78.8319  93.5136 15.83041271  1722
STARLINK-5036           
1 53917U 22119AH  22276.16668981 -.01195492  00000+0 -61299-2 0  9995
2 53917  53.2175 212.5079 0007755  59.9037 111.2997 15.82994666  1729
STARLINK-5012           
1 53918U 22119AJ  22276.16668981 -.01196786  00000+0 -61235-2 0  9993
2 53918  53.2175 212.5050 0007040  56.1180 116.6397 15.83056664  1725
STARLINK-5023           
1 53919U 22119AK  22276.16668981 -.01196952  00000+0 -61244-2 0  9999
2 53919  53.2175 212.5035 0006451  54.4724 118.7255 15.83068338  1726
STARLINK-5025           
1 53920U 22119AL  22276.16668981 -.01197188  00000+0 -61028-2 0  9993
2 53920  53.2175 212.5010 0007025  59.0812 115.5777 15.83135740  1724
STARLINK-5005           
1 53921U 22119AM  22276.16668981  .00326035  53332-4  70173-3 0  9999
2 53921  53.2242 212.3265 0049284  76.7148 186.8287 15.95682048  1729
STARLINK-5002           
1 53922U 22119AN  22276.16668981 -.01198192  00000+0 -60987-2 0  9994
2 53922  53.2175 212.5005 0007679  57.2014 117.7800 15.83156046  1722
STARLINK-5004           
1 53923U 22119AP  22276.16668981 -.01197594  00000+0 -61063-2 0  9996
2 53923  53.2175 212.5015 0007683  58.1013 116.2033 15.83118196  1724
STARLINK-5001           
1 53924U 22119AQ  22276.25001157 -.01299603  00000+0 -67254-2 0  9995
2 53924  53.2187 212.0819 0005924  57.5807 233.6397 15.83060553  1736
STARLINK-5011           
1 53925U 22119AR  22276.25001157 -.01268928  00000+0 -65533-2 0  9990
2 53925  53.2187 212.0870 0010926  65.9944 222.5461 15.82922615  1731
STARLINK-5014           
1 53926U 22119AS  22276.25001157 -.01301080  00000+0 -67265-2 0  9992
2 53926  53.2186 212.0812 0006081  57.8062 233.7469 15.83081067  1735
STARLINK-5008           
1 53927U 22119AT  22276.25001157 -.01309794  00000+0 -67852-2 0  9995
2 53927  53.2186 212.0821 0006381  59.8288 231.0198 15.83051910  1735
STARLINK-5009           
1 53928U 22119AU  22276.25001157 -.01305530  00000+0 -67452-2 0  9996
2 53928  53.2185 212.0805 0006256  57.8179 234.1153 15.83100640  1735
STARLINK-5018           
1 53929U 22119AV  22276.25001157 -.01258292  00000+0 -65087-2 0  9991
2 53929  53.2187 212.0832 0005086  60.1472 230.3097 15.82995988  1732
STARLINK-5010           
1 53930U 22119AW  22276.25001157 -.01303577  00000+0 -67243-2 0  9996
2 53930  53.2186 212.0790 0006000  56.8355 235.7962 15.83134997  1731
STARLINK-5015           
1 53931U 22119AX  22276.25001157 -.01315056  00000+0 -67866-2 0  9993
2 53931  53.2186 212.0772 0004302  58.4157 234.9180 15.83181010  1734
STARLINK-4772           
1 53932U 22119AY  22276.25001157 -.01260654  00000+0 -64829-2 0  9993
2 53932  53.2184 212.0784 0005029  62.7875 230.1337 15.83124548  1733
STARLINK-4782           
1 53933U 22119AZ  22276.25001157 -.01285936  00000+0 -66354-2 0  9999
2 53933  53.2186 212.0795 0005231  54.8070 237.4529 15.83104507  1738
STARLINK-4775           
1 53934U 22119BA  22276.25001157 -.01303392  00000+0 -67129-2 0  9998
2 53934  53.2186 212.0770 0005148  55.0404 238.7131 15.83182963  1738
STARLINK-5000           
1 53935U 22119BB  22276.25001157 -.01317509  00000+0 -67799-2 0  9997
2 53935  53.2186 212.0749 0005530  55.7967 238.7471 15.83224241  1734
STARLINK-4791           
1 53936U 22119BC  22276.25001157 -.01325802  00000+0 -68306-2 0  9998
2 53936  53.2186 212.0764 0005265  54.7954 239.2613 15.83222657  1735
STARLINK-4765           
1 53937U 22119BD  22276.25001157 -.01287260  00000+0 -66118-2 0  9993
2 53937  53.2186 212.0742 0003903  55.3868 239.4103 15.83225774  1739
FALCON 9 DEB            
1 53938U 22119BE  22275.53779672  .00837978  11454-4  91596-3 0  9991
2 53938  53.2265 215.3198 0063574  77.0285 283.7838 16.04798048  2060
FALCON 9 DEB            
1 53939U 22119BF  22275.59772604  .00845206  37861-3  91931-3 0  9991
2 53939  53.2244 214.9772 0059142  78.9988 281.7691 16.05500855  2060
FALCON 9 DEB            
1 53940U 22119BG  22275.59235093  .00809780  11498-4  82381-3 0  9994
2 53940  53.2241 214.9355 0056704  74.3370 286.3911 16.06669105  2063
FALCON 9 DEB            
1 53941U 22119BH  22275.59157925  .00912885  11507-4  90803-3 0  9992
2 53941  53.2253 214.9297 0056755  75.9894 284.7442 16.06978389  2064
